{
    "week": 294,
    "satellites": [
        {
            "Name": "BEIDOU-3 M28 (C50)",
            "Line1": "1 58654U 23207A   24329.05293994 -.00000024  00000+0  00000+0 0  9998",
            "Line2": "2 58654  55.2463  81.6210 0001846 239.9408 120.0274  1.86232069  6220",
            "SatelliteNumber": "58654",
            "Classification": "U",
            "LaunchYear": "23",
            "LaunchNumber": "207",
            "PieceOfLaunch": "A",
            "EpochYear": "24",
            "EpochDay": 329.05293994,
            "FirstDerivativeMeanMotion": -2.4e-07,
            "SecondDerivativeMeanMotion": "00000+0",
            "BSTAR": "00000+0",
            "SetNumber": "999",
            "Inclination": 55.2463,
            "RAAN": 81.621,
            "Eccentricity": 0.0001846,
            "ArgumentOfPerigee": 239.9408,
            "MeanAnomaly": 120.0274,
            "MeanMotion": 1.86232069,
            "RevolutionNumber": "622"
        },
        {
            "Name": "BEIDOU-3 M26 (C48)",
            "Line1": "1 58655U 23207B   24329.38920902 -.00000026  00000+0  00000+0 0  9993",
            "Line2": "2 58655  55.2486  81.5952 0003287 232.1557 127.8007  1.86231563  6215",
            "SatelliteNumber": "58655",
            "Classification": "U",
            "LaunchYear": "23",
            "LaunchNumber": "207",
            "PieceOfLaunch": "B",
            "EpochYear": "24",
            "EpochDay": 329.38920902,
            "FirstDerivativeMeanMotion": -2.6e-07,
            "SecondDerivativeMeanMotion": "00000+0",
            "BSTAR": "00000+0",
            "SetNumber": "999",
            "Inclination": 55.2486,
            "RAAN": 81.5952,
            "Eccentricity": 0.0003287,
            "ArgumentOfPerigee": 232.1557,
            "MeanAnomaly": 127.8007,
            "MeanMotion": 1.86231563,
            "RevolutionNumber": "621"
        }
    ]
}